HELIOS 2A               
1 28492U 04049A   22326.45595345  .00001147  00000+0  11454-3 0  9997
2 28492  98.2524 277.0195 0012828 285.9313  74.0456 14.93609013958701
SPIRALE A               
1 33751U 09008C   22326.27082373  .00000115  00000+0  35292-3 0  9993
2 33751   2.0544 103.7857 5456386 185.7587 163.5637  4.58888418201979
SPIRALE B               
1 33752U 09008D   22325.47703248  .00002169  00000+0  81022-3 0  9999
2 33752   2.2172  32.6001 6839257 318.5293   6.2109  2.83427429129527
SAPPHIRE                
1 39088U 13009C   22326.14291346  .00000072  00000+0  40650-4 0  9993
2 39088  98.4178 157.9215 0011652 162.5783 197.5804 14.34344478509745
